{"fetched_at":"2026-03-29T02:12:04Z","count":15717,"tles":[{"name":"STARLINK-30808","line1":"1 58250U 23171W   26087.53099877  .00002887  00000+0  11436-3 0  9997","line2":"2 58250  43.0012 179.0022 0001447 272.8176  87.2510 15.27584678132611","category":"Starlink"}]}