{
  "norad_id": 58250,
  "name": "STARLINK-30808",
  "history": [
    {
      "epoch": "2026-03-28T12:44:38.293728Z",
      "apogee_km": 484.02790006169926,
      "perigee_km": 482.042276859298,
      "latitude_deg": 4.692817059256434e-07,
      "longitude_deg": 161.89253124780112,
      "height_km": 482.7631645620249,
      "semi_major_axis_km": 6861.172088460498,
      "eccentricity": 0.0001447,
      "inclination_deg": 43.0012,
      "raan_deg": 179.0022,
      "arg_perigee_deg": 272.8176,
      "mean_anomaly_deg": 87.251,
      "mean_motion_rev_day": 15.27584678
    }
  ]
}